IRIDIUM 159             
1 43578U 18061K   25107.40896481  .00000162  00000+0  50869-4 0  9998
2 43578  86.3981 234.5755 0002343  94.0323 266.1140 14.34218290352350
IRIDIUM 180             
1 43922U 19002A   25107.61776609  .00000133  00000+0  40279-4 0  9991
2 43922  86.4025 171.4704 0002249  92.6161 267.5292 14.34217996327992
IRIDIUM 176             
1 43923U 19002B   25107.61318512  .00001700  00000+0  26557-3 0  9990
2 43923  86.6149 171.4711 0002025  85.2965 274.8483 14.72265995336630
IRIDIUM 168             
1 43924U 19002C   25107.61141874  .00000455  00000+0  15547-3 0  9999
2 43924  86.4027 171.5382 0002306  95.9752 264.1707 14.34221304327975
IRIDIUM 173             
1 43925U 19002D   25107.59873808  .00000072  00000+0  18806-4 0  9993
2 43925  86.4024 171.4502 0002099  92.3522 267.7914 14.34218014327952
IRIDIUM 169             
1 43926U 19002E   25107.29270172  .00000708  00000+0  22484-3 0  9998
2 43926  86.4287 203.1403 0000727  99.2967 260.8313 14.38605810328992
IRIDIUM 172             
1 43927U 19002F   25107.59239498  .00000440  00000+0  15008-3 0  9995
2 43927  86.4024 171.4591 0002466  89.1047 271.0431 14.34217167327967
IRIDIUM 175             
1 43928U 19002G   25107.06427504  .00000853  00000+0  13127-3 0  9993
2 43928  86.1477 127.7092 0001918 115.8522 244.2893 14.72241631336546
